NORAD_CAT_ID,OBJECT_NAME,OBJECT_TYPE,EPOCH,MEAN_MOTION,ECCENTRICITY,INCLINATION,RA_OF_ASC_NODE,ARG_OF_PERICENTER,MEAN_ANOMALY,BSTAR,MEAN_MOTION_DOT,MEAN_MOTION_DDOT,TLE_LINE0,TLE_LINE1,TLE_LINE2,SEMIMAJOR_AXIS,PERIOD,APOGEE,PERIGEE,DECAYED
56811.0,STARLINK-6063,PAYLOAD,2024-01-25 14:00:01,15.59838054,0.0003579,69.9991,100.5595,281.1418,135.483,-0.01193,-0.00878309,0.0,0 STARLINK-6063,1 56811U 23078AW  24025.58334491 -.00878309  00000-0 -11930-1 0  9993,2 56811  69.9991 100.5595 0003579 281.1418 135.4830 15.59838054  6020,6766.262,92.317,390.549,385.706,0.0
56811.0,STARLINK-6063,PAYLOAD,2024-01-26 00:00:00,15.59010929,0.0003379,69.9991,99.4062,274.2325,320.859,-0.01217,-0.00868929,0.0,0 STARLINK-6063,1 56811U 23078AW  24026.00001157 -.00868929  00000-0 -12170-1 0  9995,2 56811  69.9991  99.4062 0003379 274.2325 320.8590 15.59010929  5882,6768.655,92.366,392.807,388.233,0.0
56811.0,STARLINK-6063,PAYLOAD,2024-01-26 14:00:01,15.57884451,0.0003397,69.999,97.794,276.2994,350.578,-0.012953,-0.00884733,0.0,0 STARLINK-6063,1 56811U 23078AW  24026.58334491 -.00884733  00000-0 -12953-1 0  9998,2 56811  69.9990  97.7940 0003397 276.2994 350.5780 15.57884451 38021,6771.918,92.433,396.083,391.482,0.0
56811.0,STARLINK-6063,PAYLOAD,2024-01-27 06:00:00,15.5657991,0.0003197,69.9987,95.9546,271.7441,131.3885,-0.013562,-0.00882256,0.0,0 STARLINK-6063,1 56811U 23078AW  24027.25001157 -.00882256  00000-0 -13562-1 0  9998,2 56811  69.9987  95.9546 0003197 271.7441 131.3885 15.56579910 38126,6775.701,92.511,399.732,395.4,0.0
56811.0,STARLINK-6063,PAYLOAD,2024-01-27 14:00:01,15.55923465,0.0003305,69.9986,95.0361,276.8144,193.2764,-0.013822,-0.00877908,0.0,0 STARLINK-6063,1 56811U 23078AW  24027.58334491 -.00877908  00000-0 -13822-1 0  9991,2 56811  69.9986  95.0361 0003305 276.8144 193.2764 15.55923465  5920,6777.607,92.55,401.712,397.232,0.0
56811.0,STARLINK-6063,PAYLOAD,2024-01-27 22:00:00,15.55286798,0.0003227,69.9983,94.1184,270.2742,265.9876,-0.01483,-0.00916176,0.0,0 STARLINK-6063,1 56811U 23078AW  24027.91667824 -.00916176  00000-0 -14830-1 0  9998,2 56811  69.9983  94.1184 0003227 270.2742 265.9876 15.55286798 38226,6779.456,92.587,403.509,399.133,0.0
56811.0,STARLINK-6063,PAYLOAD,2024-01-28 14:00:01,15.53971065,0.0003417,69.9979,92.2863,270.4539,35.8718,-0.014969,-0.00884193,0.0,0 STARLINK-6063,1 56811U 23078AW  24028.58335648 -.00884193  00000-0 -14969-1 0  9994,2 56811  69.9979  92.2863 0003417 270.4539  35.8718 15.53971065  5769,6783.282,92.666,407.465,402.829,0.0
56811.0,STARLINK-6063,PAYLOAD,2024-01-28 22:00:00,15.53322406,0.0003453,69.9978,91.3713,266.9832,103.1064,-0.015733,-0.00905505,0.0,0 STARLINK-6063,1 56811U 23078AW  24028.91667824 -.00905505  00000-0 -15733-1 0  9996,2 56811  69.9978  91.3713 0003453 266.9832 103.1064 15.53322406  5816,6785.171,92.705,409.378,404.693,0.0
56811.0,STARLINK-6063,PAYLOAD,2024-01-29 06:00:00,15.52699571,0.0003406,69.9981,90.4575,266.8844,166.2316,-0.016553,-0.00928997,0.0,0 STARLINK-6063,1 56811U 23078AW  24029.25001157 -.00928997  00000-0 -16553-1 0  9996,2 56811  69.9981  90.4575 0003406 266.8844 166.2316 15.52699571 38439,6786.985,92.742,411.162,406.538,0.0
56811.0,STARLINK-6063,PAYLOAD,2024-01-29 22:00:01,15.51224666,0.0003551,69.9983,88.632,267.6736,289.2793,-0.0001811,-0.00010789,0.0,0 STARLINK-6063,1 56811U 23078AW  24029.91668981 -.00010789  00000-0 -18110-3 0  9997,2 56811  69.9983  88.6320 0003551 267.6736 289.2793 15.51224666 38532,6791.286,92.83,415.563,410.74,0.0
56811.0,STARLINK-6063,PAYLOAD,2024-01-30 14:00:01,15.51209722,0.0003513,69.9995,86.8092,274.1615,44.56,0.00057971,0.00034016,0.0,0 STARLINK-6063,1 56811U 23078AW  24030.58334491  .00034016  00000-0  57971-3 0  9993,2 56811  69.9995  86.8092 0003513 274.1615  44.5600 15.51209722 38645,6791.33,92.831,415.581,410.809,0.0
56811.0,STARLINK-6063,PAYLOAD,2024-01-31 00:00:02,15.51159041,0.0003469,69.9993,85.6701,270.6266,214.3172,0.001697,0.00100559,0.0,0 STARLINK-6063,1 56811U 23078AW  24031.00002315  .00100559  00000-0  16970-2 0  9997,2 56811  69.9993  85.6701 0003469 270.6266 214.3172 15.51159041  5980,6791.478,92.834,415.699,410.987,0.0
56811.0,STARLINK-6063,PAYLOAD,2024-01-31 06:00:02,15.51242586,0.0003473,69.9997,84.9866,271.9651,168.6218,-0.00037164,-0.00021949,0.0,0 STARLINK-6063,1 56811U 23078AW  24031.25002315 -.00021949  00000-0 -37164-3 0  9990,2 56811  69.9997  84.9866 0003473 271.9651 168.6218 15.51242586 38744,6791.234,92.829,415.458,410.74,0.0
56811.0,STARLINK-6063,PAYLOAD,2024-01-31 14:00:01,15.51210969,0.0003479,69.9994,84.0752,277.8214,223.6862,0.00087185,0.00051357,0.0,0 STARLINK-6063,1 56811U 23078AW  24031.58335648  .00051357  00000-0  87185-3 0  9996,2 56811  69.9994  84.0752 0003479 277.8214 223.6862 15.51210969  5923,6791.326,92.831,415.554,410.829,0.0
56811.0,STARLINK-6063,PAYLOAD,2024-01-31 22:00:00,15.51212732,0.0003427,69.9996,83.1636,272.5579,289.8169,0.00031887,0.00018602,0.0,0 STARLINK-6063,1 56811U 23078AW  24031.91667824  .00018602  00000-0  31887-3 0  9991,2 56811  69.9996  83.1636 0003427 272.5579 289.8169 15.51212732  5985,6791.321,92.831,415.514,410.859,0.0
56811.0,STARLINK-6063,PAYLOAD,2024-02-01 06:00:00,15.51297898,0.0003518,69.9999,82.252,269.2615,354.0042,-0.0026142,-0.00151232,0.0,0 STARLINK-6063,1 56811U 23078AW  24032.25001157 -.00151232  00000-0 -26142-2 0  9996,2 56811  69.9999  82.2520 0003518 269.2615 354.0042 15.51297898 38904,6791.073,92.825,415.327,410.548,0.0
56811.0,STARLINK-6063,PAYLOAD,2024-02-01 14:00:01,15.51322203,0.0003592,69.9998,81.3407,274.5099,49.6811,-0.016212,-0.00871283,0.0,0 STARLINK-6063,1 56811U 23078AW  24032.58334491 -.00871283  00000-0 -16212-1 0  9993,2 56811  69.9998  81.3407 0003592 274.5099  49.6811 15.51322203 38959,6791.002,92.824,415.306,410.427,0.0
56811.0,STARLINK-6063,PAYLOAD,2024-02-01 22:00:00,15.50651588,0.0003541,69.9997,80.4296,269.9824,114.8737,-0.016402,-0.00861498,0.0,0 STARLINK-6063,1 56811U 23078AW  24032.91667824 -.00861498  00000-0 -16402-1 0  9997,2 56811  69.9997  80.4296 0003541 269.9824 114.8737 15.50651588 39001,6792.959,92.864,417.23,412.419,0.0
56811.0,STARLINK-6063,PAYLOAD,2024-02-02 04:05:32,15.50840525,0.0003217,69.9994,79.7406,239.5754,120.5115,-0.00078204,-0.0004522,0.0,0 STARLINK-6063,1 56811U 23078AW  24033.17051942 -.00045220  00000-0 -78204-3 0  9991,2 56811  69.9994  79.7406 0003217 239.5754 120.5115 15.50840525 39046,6792.408,92.853,416.458,412.088,0.0
56811.0,STARLINK-6063,PAYLOAD,2024-02-02 11:50:36,15.5034404,0.000392,69.9983,78.8617,249.9368,110.1396,-0.0018412,-0.00103642,0.0,0 STARLINK-6063,1 56811U 23078AW  24033.49347456 -.00103642  00000-0 -18412-2 0  9991,2 56811  69.9983  78.8617 0003920 249.9368 110.1396 15.50344040 39097,6793.858,92.883,418.386,413.06,0.0
56811.0,STARLINK-6063,PAYLOAD,2024-02-02 22:00:00,15.48697143,0.0003237,70.0,77.7019,270.1108,292.0079,-0.017611,-0.00862898,0.0,0 STARLINK-6063,1 56811U 23078AW  24033.91667824 -.00862898  00000-0 -17611-1 0  9996,2 56811  70.0000  77.7019 0003237 270.1108 292.0079 15.48697143 39150,6798.673,92.981,422.739,418.338,0.0
56811.0,STARLINK-6063,PAYLOAD,2024-02-03 14:00:01,15.47416551,0.000348,69.9999,75.8881,275.6031,40.7689,-0.019011,-0.0090026,0.0,0 STARLINK-6063,1 56811U 23078AW  24034.58334491 -.00900260  00000-0 -19011-1 0  9993,2 56811  69.9999  75.8881 0003480 275.6031  40.7689 15.47416551 39263,6802.424,93.058,426.656,421.922,0.0
56811.0,STARLINK-6063,PAYLOAD,2024-02-03 22:00:00,15.4673836,0.000342,70.0001,74.9823,270.7751,101.5673,-0.018761,-0.00858889,0.0,0 STARLINK-6063,1 56811U 23078AW  24034.91667824 -.00858889  00000-0 -18761-1 0  9999,2 56811  70.0001  74.9823 0003420 270.7751 101.5673 15.46738360  6037,6804.412,93.099,428.604,423.95,0.0
56811.0,STARLINK-6063,PAYLOAD,2024-02-04 06:00:02,15.46140063,0.0003291,70.0005,74.0776,271.4349,156.1268,-0.021023,-0.00948168,0.0,0 STARLINK-6063,1 56811U 23078AW  24035.25002315 -.00948168  00000-0 -21023-1 0  9990,2 56811  70.0005  74.0776 0003291 271.4349 156.1268 15.46140063 39361,6806.167,93.135,430.272,425.792,0.0
56811.0,STARLINK-6063,PAYLOAD,2024-02-04 14:00:01,15.45458106,0.0003251,70.0002,73.1736,277.0757,204.8271,-0.02031,-0.00898849,0.0,0 STARLINK-6063,1 56811U 23078AW  24035.58334491 -.00898849  00000-0 -20310-1 0  9997,2 56811  70.0002  73.1736 0003251 277.0757 204.8271 15.45458106  5979,6808.169,93.176,432.248,427.821,0.0
56811.0,STARLINK-6063,PAYLOAD,2024-02-05 00:00:00,15.4462033,0.0003318,70.0,72.045,266.2542,12.5468,-0.019987,-0.00851352,0.0,0 STARLINK-6063,1 56811U 23078AW  24036.00001157 -.00851352  00000-0 -19987-1 0  9991,2 56811  70.0000  72.0450 0003318 266.2542  12.5468 15.44620330  6044,6810.631,93.227,434.756,430.236,0.0
56811.0,STARLINK-6063,PAYLOAD,2024-02-05 06:00:00,15.44178915,0.0003278,70.0004,71.3685,268.8109,319.5249,-0.02232,-0.00941767,0.0,0 STARLINK-6063,1 56811U 23078AW  24036.25001157 -.00941767  00000-0 -22320-1 0  9993,2 56811  70.0004  71.3685 0003278 268.8109 319.5249 15.44178915 39525,6811.929,93.253,436.027,431.561,0.0
56811.0,STARLINK-6063,PAYLOAD,2024-02-05 14:00:01,15.43506117,0.0003325,70.0,70.4671,273.9098,6.4807,-0.021945,-0.00907906,0.0,0 STARLINK-6063,1 56811U 23078AW  24036.58334491 -.00907906  00000-0 -21945-1 0  9998,2 56811  70.0000  70.4671 0003325 273.9098   6.4807 15.43506117  5975,6813.908,93.294,438.039,433.507,0.0
56811.0,STARLINK-6063,PAYLOAD,2024-02-05 22:00:00,15.42824117,0.0003374,70.0001,69.567,268.5961,63.0703,-0.021343,-0.00866253,0.0,0 STARLINK-6063,1 56811U 23078AW  24036.91667824 -.00866253  00000-0 -21343-1 0  9995,2 56811  70.0001  69.5670 0003374 268.5961  63.0703 15.42824117  6020,6815.916,93.335,440.081,435.481,0.0
56811.0,STARLINK-6063,PAYLOAD,2024-02-06 14:00:01,15.41550484,0.0003374,69.9995,67.7689,277.6943,154.2081,-0.023468,-0.00908994,0.0,0 STARLINK-6063,1 56811U 23078AW  24037.58335648 -.00908994  00000-0 -23468-1 0  9994,2 56811  69.9995  67.7689 0003374 277.6943 154.2081 15.41550484 39727,6819.67,93.412,443.836,439.234,0.0
